start=new Date('2021-10-02T00:00:00.000Z').valueOf();
sats=[{"LAUNCH_DATE":"2021-05-04","MEAN_MOTION_DOT":"-0.00000633","CENTER_NAME":"EARTH","SITE":"AFETR","TLE_LINE2":"2 48358  53.0525  73.9352 0002029  91.7678 268.3544 15.06390596 22853","ECCENTRICITY":"0.00020290","REF_FRAME":"TEME","MEAN_MOTION":"15.06390596","CLASSIFICATION_TYPE":"U","GP_ID":"185961874","NORAD_CAT_ID":"48358","RCS_SIZE":"LARGE","DECAY_DATE":null,"TIME_SYSTEM":"UTC","BSTAR":"-0.00002356300000","INCLINATION":"53.0525","TLE_LINE1":"1 48358U 21038F   21274.72404207 -.00000633  00000-0 -23563-4 0  9991","EPHEMERIS_TYPE":"0","APOAPSIS":"548.648","ELEMENT_SET_NO":"999","EPOCH":"2021-10-01T17:22:37.234848","OBJECT_NAME":"STARLINK-2624","PERIAPSIS":"545.837","RA_OF_ASC_NODE":"73.9352","OBJECT_ID":"2021-038F","SEMIMAJOR_AXIS":"6925.377","ARG_OF_PERICENTER":"91.7678","REV_AT_EPOCH":"2285","MEAN_MOTION_DDOT":"0.0000000000000","COUNTRY_CODE":"US","PERIOD":"95.593","MEAN_ANOMALY":"268.3544","OBJECT_TYPE":"PAYLOAD","MEAN_ELEMENT_THEORY":"SGP4","FILE":"3139397"},{"EPHEMERIS_TYPE":"0","TLE_LINE1":"1 48359U 21038G   21274.85303270  .00001318  00000-0  10738-3 0  9992","INCLINATION":"53.0561","BSTAR":"0.00010738000000","TIME_SYSTEM":"UTC","DECAY_DATE":null,"OBJECT_NAME":"STARLINK-2628","ELEMENT_SET_NO":"999","EPOCH":"2021-10-01T20:28:22.025280","APOAPSIS":"548.500","TLE_LINE2":"2 48359  53.0561  73.3358 0001872  98.0658 262.0543 15.06403284 22878","ECCENTRICITY":"0.00018720","SITE":"AFETR","MEAN_MOTION_DOT":"0.00001318","CENTER_NAME":"EARTH","LAUNCH_DATE":"2021-05-04","RCS_SIZE":"LARGE","GP_ID":"185962959","NORAD_CAT_ID":"48359","CLASSIFICATION_TYPE":"U","MEAN_MOTION":"15.06403284","REF_FRAME":"TEME","FILE":"3139397","MEAN_ELEMENT_THEORY":"SGP4","MEAN_ANOMALY":"262.0543","OBJECT_TYPE":"PAYLOAD","RA_OF_ASC_NODE":"73.3358","PERIAPSIS":"545.907","PERIOD":"95.592","MEAN_MOTION_DDOT":"0.0000000000000","COUNTRY_CODE":"US","REV_AT_EPOCH":"2287","ARG_OF_PERICENTER":"98.0658","SEMIMAJOR_AXIS":"6925.338","OBJECT_ID":"2021-038G"},{"APOAPSIS":"548.581","ELEMENT_SET_NO":"999","EPOCH":"2021-10-01T20:23:04.437888","OBJECT_NAME":"STARLINK-2622","DECAY_DATE":null,"TIME_SYSTEM":"UTC","BSTAR":"0.00017152000000","TLE_LINE1":"1 48360U 21038H   21274.84935692  .00002274  00000-0  17152-3 0  9991","INCLINATION":"53.0550","EPHEMERIS_TYPE":"0","MEAN_MOTION":"15.06399755","REF_FRAME":"TEME","CLASSIFICATION_TYPE":"U","NORAD_CAT_ID":"48360","GP_ID":"185962964","RCS_SIZE":"LARGE","LAUNCH_DATE":"2021-05-04","CENTER_NAME":"EARTH","MEAN_MOTION_DOT":"0.00002274","SITE":"AFETR","ECCENTRICITY":"0.00019740","TLE_LINE2":"2 48360  53.0550  73.3480 0001974  85.0436 275.0778 15.06399755 22878","MEAN_ANOMALY":"275.0778","OBJECT_TYPE":"PAYLOAD","MEAN_ELEMENT_THEORY":"SGP4","FILE":"3139397","OBJECT_ID":"2021-038H","SEMIMAJOR_AXIS":"6925.349","ARG_OF_PERICENTER":"85.0436","REV_AT_EPOCH":"2287","COUNTRY_CODE":"US","MEAN_MOTION_DDOT":"0.0000000000000","PERIOD":"95.592","PERIAPSIS":"545.847","RA_OF_ASC_NODE":"73.3480"},{"RA_OF_ASC_NODE":"73.4510","PERIAPSIS":"546.194","MEAN_MOTION_DDOT":"0.0000000000000","COUNTRY_CODE":"US","PERIOD":"95.592","SEMIMAJOR_AXIS":"6925.345","OBJECT_ID":"2021-038J","ARG_OF_PERICENTER":"105.2598","REV_AT_EPOCH":"2287","MEAN_ELEMENT_THEORY":"SGP4","FILE":"3139397","OBJECT_TYPE":"PAYLOAD","MEAN_ANOMALY":"254.8553","ECCENTRICITY":"0.00014670","TLE_LINE2":"2 48361  53.0551  73.4510 0001467 105.2598 254.8553 15.06401105 22875","LAUNCH_DATE":"2021-05-04","MEAN_MOTION_DOT":"0.00000052","CENTER_NAME":"EARTH","SITE":"AFETR","CLASSIFICATION_TYPE":"U","NORAD_CAT_ID":"48361","GP_ID":"185962843","RCS_SIZE":"LARGE","MEAN_MOTION":"15.06401105","REF_FRAME":"TEME","INCLINATION":"53.0551","TLE_LINE1":"1 48361U 21038J   21274.84566509  .00000052  00000-0  22411-4 0  9996","EPHEMERIS_TYPE":"0","DECAY_DATE":null,"TIME_SYSTEM":"UTC","BSTAR":"0.00002241100000","ELEMENT_SET_NO":"999","EPOCH":"2021-10-01T20:17:45.463776","OBJECT_NAME":"STARLINK-2591","APOAPSIS":"548.226"},{"OBJECT_TYPE":"PAYLOAD","MEAN_ANOMALY":"269.9909","MEAN_ELEMENT_THEORY":"SGP4","FILE":"3139397","ARG_OF_PERICENTER":"90.1318","OBJECT_ID":"2021-038K","SEMIMAJOR_AXIS":"6930.348","REV_AT_EPOCH":"2286","PERIOD":"95.696","MEAN_MOTION_DDOT":"0.0000000000000","COUNTRY_CODE":"US","PERIAPSIS":"550.769","RA_OF_ASC_NODE":"73.6059","APOAPSIS":"553.657","ELEMENT_SET_NO":"999","EPOCH":"2021-10-01T16:56:12.440256","OBJECT_NAME":"STARLINK-2578","TIME_SYSTEM":"UTC","DECAY_DATE":null,"BSTAR":"-0.00001568200000","TLE_LINE1":"1 48362U 21038K   21274.70569954 -.00000501  00000-0 -15682-4 0  9992","INCLINATION":"53.0548","EPHEMERIS_TYPE":"0","MEAN_MOTION":"15.04770258","REF_FRAME":"TEME","NORAD_CAT_ID":"48362","GP_ID":"185962375","CLASSIFICATION_TYPE":"U","RCS_SIZE":"LARGE","CENTER_NAME":"EARTH","MEAN_MOTION_DOT":"-0.00000501","LAUNCH_DATE":"2021-05-04","SITE":"AFETR","ECCENTRICITY":"0.00020840","TLE_LINE2":"2 48362  53.0548  73.6059 0002084  90.1318 269.9909 15.04770258 22867"},{"DECAY_DATE":null,"TIME_SYSTEM":"UTC","BSTAR":"-0.00002746800000","TLE_LINE1":"1 48363U 21038L   21274.75582625 -.00000691  00000-0 -27468-4 0  9993","INCLINATION":"53.0557","EPHEMERIS_TYPE":"0","APOAPSIS":"548.254","EPOCH":"2021-10-01T18:08:23.388000","ELEMENT_SET_NO":"999","OBJECT_NAME":"STARLINK-2626","LAUNCH_DATE":"2021-05-04","CENTER_NAME":"EARTH","MEAN_MOTION_DOT":"-0.00000691","SITE":"AFETR","ECCENTRICITY":"0.00014890","TLE_LINE2":"2 48363  53.0557  68.7680 0001489  98.9219 261.1938 15.06396932 22936","MEAN_MOTION":"15.06396932","REF_FRAME":"TEME","CLASSIFICATION_TYPE":"U","NORAD_CAT_ID":"48363","GP_ID":"185962629","RCS_SIZE":"LARGE","MEAN_ANOMALY":"261.1938","OBJECT_TYPE":"PAYLOAD","MEAN_ELEMENT_THEORY":"SGP4","FILE":"3139397","PERIAPSIS":"546.192","RA_OF_ASC_NODE":"68.7680","SEMIMAJOR_AXIS":"6925.358","OBJECT_ID":"2021-038L","ARG_OF_PERICENTER":"98.9219","REV_AT_EPOCH":"2293","COUNTRY_CODE":"US","MEAN_MOTION_DDOT":"0.0000000000000","PERIOD":"95.592"},{"MEAN_ELEMENT_THEORY":"SGP4","FILE":"3139397","OBJECT_TYPE":"PAYLOAD","MEAN_ANOMALY":"264.0226","RA_OF_ASC_NODE":"68.4909","PERIAPSIS":"546.022","PERIOD":"95.593","MEAN_MOTION_DDOT":"0.0000000000000","COUNTRY_CODE":"US","ARG_OF_PERICENTER":"96.0963","SEMIMAJOR_AXIS":"6925.372","OBJECT_ID":"2021-038M","REV_AT_EPOCH":"2294","TLE_LINE1":"1 48364U 21038M   21274.81754468 -.00000419  00000-0 -92487-5 0  9999","INCLINATION":"53.0562","EPHEMERIS_TYPE":"0","TIME_SYSTEM":"UTC","DECAY_DATE":null,"BSTAR":"-0.00000924870000","ELEMENT_SET_NO":"999","EPOCH":"2021-10-01T19:37:15.860352","OBJECT_NAME":"STARLINK-2611","APOAPSIS":"548.452","TLE_LINE2":"2 48364  53.0562  68.4909 0001754  96.0963 264.0226 15.06392363 22941","ECCENTRICITY":"0.00017540","CENTER_NAME":"EARTH","MEAN_MOTION_DOT":"-0.00000419","LAUNCH_DATE":"2021-05-04","SITE":"AFETR","GP_ID":"185962634","NORAD_CAT_ID":"48364","CLASSIFICATION_TYPE":"U","RCS_SIZE":"LARGE","MEAN_MOTION":"15.06392363","REF_FRAME":"TEME"},{"MEAN_ELEMENT_THEORY":"SGP4","FILE":"3139397","OBJECT_TYPE":"PAYLOAD","MEAN_ANOMALY":"261.2965","RA_OF_ASC_NODE":"68.5898","PERIAPSIS":"545.942","PERIOD":"95.592","COUNTRY_CODE":"US","MEAN_MOTION_DDOT":"0.0000000000000","ARG_OF_PERICENTER":"98.8231","SEMIMAJOR_AXIS":"6925.340","OBJECT_ID":"2021-038N","REV_AT_EPOCH":"2294","TLE_LINE1":"1 48365U 21038N   21274.79635902  .00002497  00000-0  18649-3 0  9990","INCLINATION":"53.0568","EPHEMERIS_TYPE":"0","TIME_SYSTEM":"UTC","DECAY_DATE":null,"BSTAR":"0.00018649000000","ELEMENT_SET_NO":"999","EPOCH":"2021-10-01T19:06:45.419328","OBJECT_NAME":"STARLINK-2608","APOAPSIS":"548.469","ECCENTRICITY":"0.00018250","TLE_LINE2":"2 48365  53.0568  68.5898 0001825  98.8231 261.2965 15.06402659 22942","CENTER_NAME":"EARTH","MEAN_MOTION_DOT":"0.00002497","LAUNCH_DATE":"2021-05-04","SITE":"AFETR","GP_ID":"185963174","NORAD_CAT_ID":"48365","CLASSIFICATION_TYPE":"U","RCS_SIZE":"MEDIUM","REF_FRAME":"TEME","MEAN_MOTION":"15.06402659"},{"MEAN_MOTION":"15.06395489","REF_FRAME":"TEME","RCS_SIZE":"LARGE","CLASSIFICATION_TYPE":"U","NORAD_CAT_ID":"48366","GP_ID":"185961875","SITE":"AFETR","LAUNCH_DATE":"2021-05-04","CENTER_NAME":"EARTH","MEAN_MOTION_DOT":"-0.00000031","TLE_LINE2":"2 48366  53.0554  63.3478 0001772  94.8324 265.2867 15.06395489 23011","ECCENTRICITY":"0.00017720","APOAPSIS":"548.455","OBJECT_NAME":"STARLINK-2631","EPOCH":"2021-10-01T20:24:24.088320","ELEMENT_SET_NO":"999","BSTAR":"0.00001682700000","DECAY_DATE":null,"TIME_SYSTEM":"UTC","EPHEMERIS_TYPE":"0","TLE_LINE1":"1 48366U 21038P   21274.85027880 -.00000031  00000-0  16827-4 0  9998","INCLINATION":"53.0554","REV_AT_EPOCH":"2301","OBJECT_ID":"2021-038P","SEMIMAJOR_AXIS":"6925.362","ARG_OF_PERICENTER":"94.8324","COUNTRY_CODE":"US","MEAN_MOTION_DDOT":"0.0000000000000","PERIOD":"95.592","PERIAPSIS":"546.000","RA_OF_ASC_NODE":"63.3478","OBJECT_TYPE":"PAYLOAD","MEAN_ANOMALY":"265.2867","FILE":"3139397","MEAN_ELEMENT_THEORY":"SGP4"},{"ARG_OF_PERICENTER":"100.6261","OBJECT_ID":"2021-038Q","SEMIMAJOR_AXIS":"6925.342","REV_AT_EPOCH":"2299","PERIOD":"95.592","COUNTRY_CODE":"US","MEAN_MOTION_DDOT":"0.0000000000000","PERIAPSIS":"546.049","RA_OF_ASC_NODE":"63.9617","MEAN_ANOMALY":"259.4917","OBJECT_TYPE":"PAYLOAD","MEAN_ELEMENT_THEORY":"SGP4","FILE":"3139397","MEAN_MOTION":"15.06402199","REF_FRAME":"TEME","NORAD_CAT_ID":"48367","GP_ID":"185962960","CLASSIFICATION_TYPE":"U","RCS_SIZE":"LARGE","CENTER_NAME":"EARTH","MEAN_MOTION_DOT":"0.00000951","LAUNCH_DATE":"2021-05-04","SITE":"AFETR","ECCENTRICITY":"0.00016720","TLE_LINE2":"2 48367  53.0572  63.9617 0001672 100.6261 259.4917 15.06402199 22992","APOAPSIS":"548.365","ELEMENT_SET_NO":"999","EPOCH":"2021-10-01T17:07:59.752992","OBJECT_NAME":"STARLINK-2643","TIME_SYSTEM":"UTC","DECAY_DATE":null,"BSTAR":"0.00008274200000","TLE_LINE1":"1 48367U 21038Q   21274.71388603  .00000951  00000-0  82742-4 0  9996","INCLINATION":"53.0572","EPHEMERIS_TYPE":"0"}];
